var rocks = [
{"name":"(2016 FZ13)","year":"2016","neo_reference_id":"3748491","url":"http://ssd.jpl.nasa.gov/sbdb.cgi?sstr=3748491","api_link":"https://api.nasa.gov/neo/rest/v1/neo/3748491?api_key=CGuQueDNtud5hWODnVj9El7kwfizD8Ql2XqEz3s5","closest_approach":"2016-03-23","potentially_hazardous":false,"absolute_magnitude_h":28.3,"estimated_diameter":0.009408981549999999,"kilometers_per_second":4.5033537573,"miss_distance":0.9788325429,"orbital_data":[{"orbit_id":"5","orbit_determination_date":"2016-04-25 12:08:15","orbit_uncertainty":"5","minimum_orbit_intersection":".00170898","jupiter_tisserand_invariant":"6.350","epoch_osculation":"2457600.5","eccentricity":".1499839583206359","semi_major_axis":".9444196944049187","inclination":"4.177915383300618","ascending_node_longitude":"183.9056815046635","orbital_period":"335.2323947138322","perihelion_distance":".8027718903221036","perihelion_argument":"238.6175634416884","aphelion_distance":"1.086067498487734","perihelion_time":"2457708.483518568721","mean_anomaly":"244.0384542253913","mean_motion":"1.073881897086081","equinox":"J2000"}]},
{"name":"(2016 EN157)","year":"2016","neo_reference_id":"3747316","url":"http://ssd.jpl.nasa.gov/sbdb.cgi?sstr=3747316","api_link":"https://api.nasa.gov/neo/rest/v1/neo/3747316?api_key=CGuQueDNtud5hWODnVj9El7kwfizD8Ql2XqEz3s5","closest_approach":"2016-03-10","potentially_hazardous":false,"absolute_magnitude_h":28,"estimated_diameter":0.0108029562,"kilometers_per_second":12.5637550519,"miss_distance":0.8389635682,"orbital_data":[{"orbit_id":"2","orbit_determination_date":"2016-03-24 15:18:11","orbit_uncertainty":"7","minimum_orbit_intersection":".00115001","jupiter_tisserand_invariant":"3.678","epoch_osculation":"2457600.5","eccentricity":".5651616334815212","semi_major_axis":"1.946819201127732","inclination":"4.86311784692955","ascending_node_longitude":"170.8559930218173","orbital_period":"992.1717524112244","perihelion_distance":".8465516813251929","perihelion_argument":"305.235970908489","aphelion_distance":"3.047086720930271","perihelion_time":"2457419.690542968745","mean_anomaly":"65.60497653058924","mean_motion":".3628404045218082","equinox":"J2000"}]},
{"name":"(2016 EF195)","year":"2016","neo_reference_id":"3747497","url":"http://ssd.jpl.nasa.gov/sbdb.cgi?sstr=3747497","api_link":"https://api.nasa.gov/neo/rest/v1/neo/3747497?api_key=CGuQueDNtud5hWODnVj9El7kwfizD8Ql2XqEz3s5","closest_approach":"2016-03-11","potentially_hazardous":false,"absolute_magnitude_h":25.5,"estimated_diameter":0.0341619472,"kilometers_per_second":10.0629657789,"miss_distance":0.082375966,"orbital_data":[{"orbit_id":"5","orbit_determination_date":"2016-03-24 15:20:26","orbit_uncertainty":"8","minimum_orbit_intersection":".000121222","jupiter_tisserand_invariant":"3.192","epoch_osculation":"2457463.5","eccentricity":".6087763435552608","semi_major_axis":"2.482391641190091","inclination":"1.0814087866117","ascending_node_longitude":"170.5216213037343","orbital_period":"1428.577735007373","perihelion_distance":".9711703345942445","perihelion_argument":"340.5261378431761","aphelion_distance":"3.993612947785938","perihelion_time":"2457443.315155118435","mean_anomaly":"5.086558455515824","mean_motion":".2519988875496102","equinox":"J2000"}]},
{"name":"(2016 FC1)","year":"2016","neo_reference_id":"3747990","url":"http://ssd.jpl.nasa.gov/sbdb.cgi?sstr=3747990","api_link":"https://api.nasa.gov/neo/rest/v1/neo/3747990?api_key=CGuQueDNtud5hWODnVj9El7kwfizD8Ql2XqEz3s5","closest_approach":"2016-03-14","potentially_hazardous":false,"absolute_magnitude_h":29.1,"estimated_diameter":0.00650942485,"kilometers_per_second":16.1839010826,"miss_distance":0.4364832044,"orbital_data":[{"orbit_id":"2","orbit_determination_date":"2016-03-24 15:20:59","orbit_uncertainty":"8","minimum_orbit_intersection":".00059567","jupiter_tisserand_invariant":"3.493","epoch_osculation":"2457464.5","eccentricity":".6394150865910748","semi_major_axis":"2.060210204994628","inclination":"1.247105235537795","ascending_node_longitude":"352.5767350889745","orbital_period":"1080.104381865436","perihelion_distance":".742880718372172","perihelion_argument":"112.1495636518651","aphelion_distance":"3.377539691617084","perihelion_time":"2457418.689073636574","mean_anomaly":"15.26883305699615","mean_motion":".3333011198216306","equinox":"J2000"}]},
{"name":"(2016 EV28)","year":"2016","neo_reference_id":"3745642","url":"http://ssd.jpl.nasa.gov/sbdb.cgi?sstr=3745642","api_link":"https://api.nasa.gov/neo/rest/v1/neo/3745642?api_key=CGuQueDNtud5hWODnVj9El7kwfizD8Ql2XqEz3s5","closest_approach":"2016-03-08","potentially_hazardous":false,"absolute_magnitude_h":28.5,"estimated_diameter":0.00858109315,"kilometers_per_second":25.6355654462,"miss_distance":0.4015095234,"orbital_data":[{"orbit_id":"3","orbit_determination_date":"2016-03-24 15:11:25","orbit_uncertainty":"6","minimum_orbit_intersection":".000969348","jupiter_tisserand_invariant":"3.454","epoch_osculation":"2457600.5","eccentricity":".7696476732232673","semi_major_axis":"1.946523075189635","inclination":"1.977296573643205","ascending_node_longitude":"166.159126818971","orbital_period":"991.9453857682269","perihelion_distance":".4483861194945334","perihelion_argument":"106.8056098115576","aphelion_distance":"3.444660030884737","perihelion_time":"2457501.041579997575","mean_anomaly":"36.09576869309513","mean_motion":".3629232064234995","equinox":"J2000"}]},
{"name":"(2016 EL1)","year":"2016","neo_reference_id":"3745052","url":"http://ssd.jpl.nasa.gov/sbdb.cgi?sstr=3745052","api_link":"https://api.nasa.gov/neo/rest/v1/neo/3745052?api_key=CGuQueDNtud5hWODnVj9El7kwfizD8Ql2XqEz3s5","closest_approach":"2016-03-04","potentially_hazardous":false,"absolute_magnitude_h":27.8,"estimated_diameter":0.01184520595,"kilometers_per_second":20.1288311106,"miss_distance":0.5984274149,"orbital_data":[{"orbit_id":"2","orbit_determination_date":"2016-03-24 15:09:08","orbit_uncertainty":"7","minimum_orbit_intersection":".00121527","jupiter_tisserand_invariant":"3.790","epoch_osculation":"2457600.5","eccentricity":".6580427141308505","semi_major_axis":"1.788716935336098","inclination":"4.012297323691725","ascending_node_longitude":"165.0751446439311","orbital_period":"873.7976153316988","perihelion_distance":".6116647883957153","perihelion_argument":"87.1228893846117","aphelion_distance":"2.965769082276482","perihelion_time":"2457499.648796601860","mean_anomaly":"41.55016285956349","mean_motion":".4119947155764918","equinox":"J2000"}]}
];